{
  "type": "FeatureCollection",
  "features": [
    {
      "type": "Feature",
      "properties": {
        "norad_id": 25590,
        "name": "COSMOS 2361",
        "group": "musson",
        "lat": 82.81850000008195,
        "lon": 68.34173459146196,
        "alt_km": 1002.0770799658221,
        "timestamp": "2025-12-06T18:50:10.438179+00:00",
        "meta_object_name": "COSMOS 2361",
        "meta_object_id": "1998-076A",
        "meta_epoch": "2025-12-06T07:58:05.206080",
        "meta_mean_motion": 13.73216426,
        "meta_eccentricity": 0.00301041,
        "meta_inclination": 82.934,
        "meta_ra_of_asc_node": 348.8262,
        "meta_arg_of_pericenter": 284.2249,
        "meta_mean_anomaly": 87.0472,
        "meta_ephemeris_type": 0,
        "meta_classification_type": "U",
        "meta_norad_cat_id": 25590,
        "meta_element_set_no": 999,
        "meta_rev_at_epoch": 35023,
        "meta_bstar": 8.9334207e-05,
        "meta_mean_motion_dot": 9.8e-07,
        "meta_mean_motion_ddot": 0,
        "tle_line1": "1 25590U 98076A   25340.33200470  .00000098  00000+0  89334-4 0  9991",
        "tle_line2": "2 25590  82.9340 348.8262 0030104 284.2249  87.0472 13.73216426350237"
      },
      "geometry": {
        "type": "Point",
        "coordinates": [
          68.34173459146196,
          82.81850000008195
        ]
      }
    },
    {
      "type": "Feature",
      "properties": {
        "norad_id": 26818,
        "name": "COSMOS 2378",
        "group": "musson",
        "lat": 38.44164506810323,
        "lon": 178.48578729356316,
        "alt_km": 977.9666357156957,
        "timestamp": "2025-12-06T18:50:10.438202+00:00",
        "meta_object_name": "COSMOS 2378",
        "meta_object_id": "2001-023A",
        "meta_epoch": "2025-12-06T07:42:57.230208",
        "meta_mean_motion": 13.74141201,
        "meta_eccentricity": 0.00320569,
        "meta_inclination": 82.9277,
        "meta_ra_of_asc_node": 4.4843,
        "meta_arg_of_pericenter": 223.1671,
        "meta_mean_anomaly": 147.4729,
        "meta_ephemeris_type": 0,
        "meta_classification_type": "U",
        "meta_norad_cat_id": 26818,
        "meta_element_set_no": 999,
        "meta_rev_at_epoch": 22835,
        "meta_bstar": 7.847976e-05,
        "meta_mean_motion_dot": 8.9e-07,
        "meta_mean_motion_ddot": 0,
        "tle_line1": "1 26818U 01023A   25340.32149572  .00000089  00000+0  78480-4 0  9995",
        "tle_line2": "2 26818  82.9277   4.4843 0032056 223.1671 147.4729 13.74141201228351"
      },
      "geometry": {
        "type": "Point",
        "coordinates": [
          178.48578729356316,
          38.44164506810323
        ]
      }
    },
    {
      "type": "Feature",
      "properties": {
        "norad_id": 27436,
        "name": "COSMOS 2389",
        "group": "musson",
        "lat": -33.58587098995293,
        "lon": -53.32006427012678,
        "alt_km": 999.5058204626966,
        "timestamp": "2025-12-06T18:50:10.438216+00:00",
        "meta_object_name": "COSMOS 2389",
        "meta_object_id": "2002-026A",
        "meta_epoch": "2025-12-06T05:04:58.751040",
        "meta_mean_motion": 13.75153594,
        "meta_eccentricity": 0.00477472,
        "meta_inclination": 82.9496,
        "meta_ra_of_asc_node": 311.8178,
        "meta_arg_of_pericenter": 78.4851,
        "meta_mean_anomaly": 292.9276,
        "meta_ephemeris_type": 0,
        "meta_classification_type": "U",
        "meta_norad_cat_id": 27436,
        "meta_element_set_no": 999,
        "meta_rev_at_epoch": 18059,
        "meta_bstar": 7.8333976e-05,
        "meta_mean_motion_dot": 9.1e-07,
        "meta_mean_motion_ddot": 0,
        "tle_line1": "1 27436U 02026A   25340.21179110  .00000091  00000+0  78334-4 0  9996",
        "tle_line2": "2 27436  82.9496 311.8178 0047747  78.4851 292.9276 13.75153594180596"
      },
      "geometry": {
        "type": "Point",
        "coordinates": [
          -53.32006427012678,
          -33.58587098995293
        ]
      }
    },
    {
      "type": "Feature",
      "properties": {
        "norad_id": 27818,
        "name": "COSMOS 2398",
        "group": "musson",
        "lat": -21.442325355293452,
        "lon": -85.69995877604134,
        "alt_km": 1016.7110811911625,
        "timestamp": "2025-12-06T18:50:10.438228+00:00",
        "meta_object_name": "COSMOS 2398",
        "meta_object_id": "2003-023A",
        "meta_epoch": "2025-12-06T05:44:14.096256",
        "meta_mean_motion": 13.7238472,
        "meta_eccentricity": 0.00323342,
        "meta_inclination": 82.9478,
        "meta_ra_of_asc_node": 277.4888,
        "meta_arg_of_pericenter": 129.2408,
        "meta_mean_anomaly": 34.4354,
        "meta_ephemeris_type": 0,
        "meta_classification_type": "U",
        "meta_norad_cat_id": 27818,
        "meta_element_set_no": 999,
        "meta_rev_at_epoch": 12727,
        "meta_bstar": 7.9250575e-05,
        "meta_mean_motion_dot": 8.8e-07,
        "meta_mean_motion_ddot": 0,
        "tle_line1": "1 27818U 03023A   25340.23905204  .00000088  00000+0  79251-4 0  9996",
        "tle_line2": "2 27818  82.9478 277.4888 0032334 129.2408  34.4354 13.72384720127270"
      },
      "geometry": {
        "type": "Point",
        "coordinates": [
          -85.69995877604134,
          -21.442325355293452
        ]
      }
    },
    {
      "type": "Feature",
      "properties": {
        "norad_id": 28380,
        "name": "COSMOS 2407",
        "group": "musson",
        "lat": 82.94081829537684,
        "lon": -48.781726086649506,
        "alt_km": 941.4459206991487,
        "timestamp": "2025-12-06T18:50:10.438239+00:00",
        "meta_object_name": "COSMOS 2407",
        "meta_object_id": "2004-028A",
        "meta_epoch": "2025-12-05T23:15:47.898432",
        "meta_mean_motion": 13.76312462,
        "meta_eccentricity": 0.00404904,
        "meta_inclination": 82.9614,
        "meta_ra_of_asc_node": 217.9051,
        "meta_arg_of_pericenter": 73.2029,
        "meta_mean_anomaly": 298.6338,
        "meta_ephemeris_type": 0,
        "meta_classification_type": "U",
        "meta_norad_cat_id": 28380,
        "meta_element_set_no": 999,
        "meta_rev_at_epoch": 7330,
        "meta_bstar": 0.00010127991,
        "meta_mean_motion_dot": 1.15e-06,
        "meta_mean_motion_ddot": 0,
        "tle_line1": "1 28380U 04028A   25339.96930438  .00000115  00000+0  10128-3 0  9990",
        "tle_line2": "2 28380  82.9614 217.9051 0040490  73.2029 298.6338 13.76312462 73305"
      },
      "geometry": {
        "type": "Point",
        "coordinates": [
          -48.781726086649506,
          82.94081829537684
        ]
      }
    },
    {
      "type": "Feature",
      "properties": {
        "norad_id": 28521,
        "name": "COSMOS 2414",
        "group": "musson",
        "lat": 73.16613771639709,
        "lon": -14.979916232477402,
        "alt_km": 910.3190152828047,
        "timestamp": "2025-12-06T18:50:10.438251+00:00",
        "meta_object_name": "COSMOS 2414",
        "meta_object_id": "2005-002A",
        "meta_epoch": "2025-12-06T01:01:39.540000",
        "meta_mean_motion": 13.87901663,
        "meta_eccentricity": 0.00404897,
        "meta_inclination": 82.9498,
        "meta_ra_of_asc_node": 189.7237,
        "meta_arg_of_pericenter": 158.4993,
        "meta_mean_anomaly": 201.7883,
        "meta_ephemeris_type": 0,
        "meta_classification_type": "U",
        "meta_norad_cat_id": 28521,
        "meta_element_set_no": 999,
        "meta_rev_at_epoch": 5702,
        "meta_bstar": 9.5472377e-05,
        "meta_mean_motion_dot": 1.3e-06,
        "meta_mean_motion_ddot": 0,
        "tle_line1": "1 28521U 05002A   25340.04281875  .00000130  00000+0  95472-4 0  9998",
        "tle_line2": "2 28521  82.9498 189.7237 0040489 158.4993 201.7883 13.87901663 57028"
      },
      "geometry": {
        "type": "Point",
        "coordinates": [
          -14.979916232477402,
          73.16613771639709
        ]
      }
    },
    {
      "type": "Feature",
      "properties": {
        "norad_id": 32052,
        "name": "COSMOS 2429",
        "group": "musson",
        "lat": 26.522242034813107,
        "lon": 164.1740177213341,
        "alt_km": 984.6088658999688,
        "timestamp": "2025-12-06T18:50:10.438262+00:00",
        "meta_object_name": "COSMOS 2429",
        "meta_object_id": "2007-038A",
        "meta_epoch": "2025-12-06T07:37:13.123200",
        "meta_mean_motion": 13.75148429,
        "meta_eccentricity": 0.00395213,
        "meta_inclination": 82.9803,
        "meta_ra_of_asc_node": 348.0437,
        "meta_arg_of_pericenter": 55.3462,
        "meta_mean_anomaly": 305.141,
        "meta_ephemeris_type": 0,
        "meta_classification_type": "U",
        "meta_norad_cat_id": 32052,
        "meta_element_set_no": 999,
        "meta_rev_at_epoch": 91514,
        "meta_bstar": 7.1111268e-05,
        "meta_mean_motion_dot": 8.4e-07,
        "meta_mean_motion_ddot": 0,
        "tle_line1": "1 32052U 07038A   25340.31751300  .00000084  00000+0  71111-4 0  9990",
        "tle_line2": "2 32052  82.9803 348.0437 0039521  55.3462 305.1410 13.75148429915146"
      },
      "geometry": {
        "type": "Point",
        "coordinates": [
          164.1740177213341,
          26.522242034813107
        ]
      }
    },
    {
      "type": "Feature",
      "properties": {
        "norad_id": 35635,
        "name": "COSMOS 2454",
        "group": "musson",
        "lat": 66.35667597833631,
        "lon": -23.246491459173164,
        "alt_km": 908.6374565556298,
        "timestamp": "2025-12-06T18:50:10.438273+00:00",
        "meta_object_name": "COSMOS 2454",
        "meta_object_id": "2009-039A",
        "meta_epoch": "2025-12-06T00:01:46.066368",
        "meta_mean_motion": 13.89927461,
        "meta_eccentricity": 0.00205008,
        "meta_inclination": 82.9557,
        "meta_ra_of_asc_node": 173.753,
        "meta_arg_of_pericenter": 91.7639,
        "meta_mean_anomaly": 61.965,
        "meta_ephemeris_type": 0,
        "meta_classification_type": "U",
        "meta_norad_cat_id": 35635,
        "meta_element_set_no": 999,
        "meta_rev_at_epoch": 83056,
        "meta_bstar": 9.042393e-05,
        "meta_mean_motion_dot": 1.27e-06,
        "meta_mean_motion_ddot": 0,
        "tle_line1": "1 35635U 09039A   25340.00122762  .00000127  00000+0  90424-4 0  9999",
        "tle_line2": "2 35635  82.9557 173.7530 0020500  91.7639  61.9650 13.89927461830567"
      },
      "geometry": {
        "type": "Point",
        "coordinates": [
          -23.246491459173164,
          66.35667597833631
        ]
      }
    },
    {
      "type": "Feature",
      "properties": {
        "norad_id": 36519,
        "name": "COSMOS 2463",
        "group": "musson",
        "lat": -3.821996442744446,
        "lon": -148.43851104320103,
        "alt_km": 1010.445645230684,
        "timestamp": "2025-12-06T18:50:10.438283+00:00",
        "meta_object_name": "COSMOS 2463",
        "meta_object_id": "2010-017A",
        "meta_epoch": "2025-12-06T03:58:20.108064",
        "meta_mean_motion": 13.71648238,
        "meta_eccentricity": 0.00349855,
        "meta_inclination": 82.9618,
        "meta_ra_of_asc_node": 31.5435,
        "meta_arg_of_pericenter": 306.9363,
        "meta_mean_anomaly": 60.6371,
        "meta_ephemeris_type": 0,
        "meta_classification_type": "U",
        "meta_norad_cat_id": 36519,
        "meta_element_set_no": 999,
        "meta_rev_at_epoch": 78147,
        "meta_bstar": 8.4170821e-05,
        "meta_mean_motion_dot": 9.1e-07,
        "meta_mean_motion_ddot": 0,
        "tle_line1": "1 36519U 10017A   25340.16551051  .00000091  00000+0  84171-4 0  9995",
        "tle_line2": "2 36519  82.9618  31.5435 0034985 306.9363  60.6371 13.71648238781473"
      },
      "geometry": {
        "type": "Point",
        "coordinates": [
          -148.43851104320103,
          -3.821996442744446
        ]
      }
    }
  ]
}